NORAD_CAT_ID,OBJECT_NAME,OBJECT_TYPE,EPOCH,MEAN_MOTION,ECCENTRICITY,INCLINATION,RA_OF_ASC_NODE,ARG_OF_PERICENTER,MEAN_ANOMALY,BSTAR,MEAN_MOTION_DOT,MEAN_MOTION_DDOT,TLE_LINE0,TLE_LINE1,TLE_LINE2,SEMIMAJOR_AXIS,PERIOD,APOGEE,PERIGEE,DECAYED
51872.0,STARLINK-3554,PAYLOAD,2023-08-17 01:07:40,15.08839864,0.0001294,53.2163,249.3865,87.0175,273.0966,5.7319e-05,6.24e-06,0.0,0 STARLINK-3554,1 51872U 22022W   23229.04699348  .00000624  00000-0  57319-4 0  9993,2 51872  53.2163 249.3865 0001294  87.0175 273.0966 15.08839864 81864,6917.881,95.438,540.641,538.851,0.0
51872.0,STARLINK-3554,PAYLOAD,2023-08-18 07:19:59,15.08838788,0.000135,53.2162,243.7372,86.6064,273.5082,3.9947e-05,3.48e-06,0.0,0 STARLINK-3554,1 51872U 22022W   23230.30555518  .00000348  00000-0  39947-4 0  9994,2 51872  53.2162 243.7372 0001350  86.6064 273.5082 15.08838788 82059,6917.884,95.438,540.683,538.815,0.0
51872.0,STARLINK-3554,PAYLOAD,2023-08-20 03:50:47,15.08836832,0.0001343,53.215,235.4107,89.0049,271.1097,3.6594e-05,2.94e-06,0.0,0 STARLINK-3554,1 51872U 22022W   23232.16027662  .00000294  00000-0  36594-4 0  9999,2 51872  53.2150 235.4107 0001343  89.0049 271.1097 15.08836832 82331,6917.89,95.438,540.684,538.826,0.0
51872.0,STARLINK-3554,PAYLOAD,2023-08-21 06:52:21,15.08839759,0.0001309,53.2152,230.3552,94.1724,265.9418,3.4423e-05,2.6e-06,0.0,0 STARLINK-3554,1 51872U 22022W   23233.28635654  .00000260  00000-0  34423-4 0  9991,2 51872  53.2152 230.3552 0001309  94.1724 265.9418 15.08839759 82508,6917.881,95.438,540.652,538.841,0.0
51872.0,STARLINK-3554,PAYLOAD,2023-08-22 03:32:22,15.08834544,0.0001337,53.2155,226.4903,95.905,264.2095,5.8995e-05,6.51e-06,0.0,0 STARLINK-3554,1 51872U 22022W   23234.14748148  .00000651  00000-0  58995-4 0  9994,2 51872  53.2155 226.4903 0001337  95.9050 264.2095 15.08834544 82633,6917.897,95.438,540.687,538.837,0.0
51872.0,STARLINK-3554,PAYLOAD,2023-08-24 08:00:07,15.08822859,0.0001419,53.2157,216.6766,96.9996,263.1157,-6.0866e-05,-1.256e-05,0.0,0 STARLINK-3554,1 51872U 22022W   23236.33342396 -.00001256  00000-0 -60866-4 0  9996,2 51872  53.2157 216.6766 0001419  96.9996 263.1157 15.08822859 82963,6917.933,95.439,540.779,538.816,0.0
51872.0,STARLINK-3554,PAYLOAD,2023-08-25 04:40:09,15.08793402,0.0001607,53.2151,212.8097,102.4877,257.6295,0.00058637,9.045e-05,0.0,0 STARLINK-3554,1 51872U 22022W   23237.19454921  .00009045  00000-0  58637-3 0  9993,2 51872  53.2151 212.8097 0001607 102.4877 257.6295 15.08793402 83099,6918.023,95.441,541.0,538.776,0.0
51872.0,STARLINK-3554,PAYLOAD,2023-08-25 22:09:22,15.08836578,0.0001468,53.2159,209.5375,95.269,264.8469,0.00020209,2.929e-05,0.0,0 STARLINK-3554,1 51872U 22022W   23237.92317661  .00002929  00000-0  20209-3 0  9991,2 51872  53.2159 209.5375 0001468  95.2690 264.8469 15.08836578 83204,6917.891,95.438,540.771,538.74,0.0
51872.0,STARLINK-3554,PAYLOAD,2023-08-26 07:41:40,15.08845883,0.000143,53.2153,207.7541,97.0306,263.0849,0.00025784,3.819e-05,0.0,0 STARLINK-3554,1 51872U 22022W   23238.32060917  .00003819  00000-0  25784-3 0  9997,2 51872  53.2153 207.7541 0001430  97.0306 263.0849 15.08845883 83264,6917.862,95.437,540.717,538.738,0.0
51872.0,STARLINK-3554,PAYLOAD,2023-08-27 01:10:55,15.08837511,0.0001711,53.214,204.4826,116.9379,243.1788,0.00027007,4.012e-05,0.0,0 STARLINK-3554,1 51872U 22022W   23239.04924909  .00004012  00000-0  27007-3 0  9993,2 51872  53.2140 204.4826 0001711 116.9379 243.1788 15.08837511 83375,6917.888,95.438,540.937,538.569,0.0
51872.0,STARLINK-3554,PAYLOAD,2023-08-27 07:32:27,15.08856391,0.0001495,53.2155,203.2949,83.5435,276.5727,0.000101,1.32e-05,0.0,0 STARLINK-3554,1 51872U 22022W   23239.31420425  .00001320  00000-0  10100-3 0  9992,2 51872  53.2155 203.2949 0001495  83.5435 276.5727 15.08856391 83410,6917.83,95.437,540.73,538.661,0.0
51872.0,STARLINK-3554,PAYLOAD,2023-08-27 21:50:56,15.08831945,0.0001866,53.2167,200.6145,107.301,252.8187,0.0001482,2.071e-05,0.0,0 STARLINK-3554,1 51872U 22022W   23239.91037211  .00002071  00000-0  14820-3 0  9992,2 51872  53.2167 200.6145 0001866 107.3010 252.8187 15.08831945 83503,6917.905,95.438,541.061,538.479,0.0
51872.0,STARLINK-3554,PAYLOAD,2023-08-28 01:01:41,15.08850218,0.000167,53.2152,200.0195,117.3628,242.7534,-4.6615e-05,-1.03e-05,0.0,0 STARLINK-3554,1 51872U 22022W   23240.04284609 -.00001030  00000-0 -46615-4 0  9997,2 51872  53.2152 200.0195 0001670 117.3628 242.7534 15.08850218 83525,6917.849,95.437,540.869,538.559,0.0
51872.0,STARLINK-3554,PAYLOAD,2023-08-28 13:44:47,15.08844344,0.0001523,53.2165,197.6418,91.9633,268.1533,-5.0343e-05,-1.089e-05,0.0,0 STARLINK-3554,1 51872U 22022W   23240.57276870 -.00001089  00000-0 -50343-4 0  9993,2 51872  53.2165 197.6418 0001523  91.9633 268.1533 15.08844344 83601,6917.867,95.437,540.786,538.679,0.0
51872.0,STARLINK-3554,PAYLOAD,2023-08-29 00:52:29,15.08844623,0.0001432,53.2164,195.5621,91.6771,268.4385,-5.6436e-05,-1.186e-05,0.0,0 STARLINK-3554,1 51872U 22022W   23241.03644780 -.00001186  00000-0 -56436-4 0  9991,2 51872  53.2164 195.5621 0001432  91.6771 268.4385 15.08844623 83677,6917.866,95.437,540.722,538.741,0.0
51872.0,STARLINK-3554,PAYLOAD,2023-08-29 07:14:01,15.08849245,0.0001539,53.2166,194.3736,104.1486,255.9677,-6.9518e-06,-3.99e-06,0.0,0 STARLINK-3554,1 51872U 22022W   23241.30140195 -.00000399  00000-0 -69518-5 0  9993,2 51872  53.2166 194.3736 0001539 104.1486 255.9677 15.08849245 83719,6917.852,95.437,540.782,538.652,0.0
51872.0,STARLINK-3554,PAYLOAD,2023-08-29 13:35:33,15.08844064,0.0001408,53.2162,193.1835,90.3485,269.7668,-3.4196e-05,-8.32e-06,0.0,0 STARLINK-3554,1 51872U 22022W   23241.56636529 -.00000832  00000-0 -34196-4 0  9997,2 51872  53.2162 193.1835 0001408  90.3485 269.7668 15.08844064 83753,6917.868,95.437,540.707,538.759,0.0
51872.0,STARLINK-3554,PAYLOAD,2023-08-30 00:43:16,15.08829375,0.0001392,53.2167,191.1034,97.0041,263.1109,-5.0596e-05,-1.093e-05,0.0,0 STARLINK-3554,1 51872U 22022W   23242.03005762 -.00001093  00000-0 -50596-4 0  9991,2 51872  53.2167 191.1034 0001392  97.0041 263.1109 15.08829375 83825,6917.913,95.438,540.741,538.815,0.0
51872.0,STARLINK-3554,PAYLOAD,2023-08-30 13:26:21,15.08836998,0.0001302,53.2166,188.7235,91.4241,268.69,-9.6264e-06,-4.41e-06,0.0,0 STARLINK-3554,1 51872U 22022W   23242.55997301 -.00000441  00000-0 -96264-5 0  9996,2 51872  53.2166 188.7235 0001302  91.4241 268.6900 15.08836998 83907,6917.89,95.438,540.655,538.854,0.0
51872.0,STARLINK-3554,PAYLOAD,2023-08-31 05:20:12,15.08839038,0.0001416,53.2169,185.7506,105.4106,254.7042,5.5653e-05,5.98e-06,0.0,0 STARLINK-3554,1 51872U 22022W   23243.22237130  .00000598  00000-0  55653-4 0  9995,2 51872  53.2169 185.7506 0001416 105.4106 254.7042 15.08839038 84003,6917.883,95.438,540.728,538.769,0.0
51872.0,STARLINK-3554,PAYLOAD,2023-09-01 02:00:14,15.08833353,0.0001236,53.2171,181.8867,91.7908,268.3225,8.2604e-05,1.027e-05,0.0,0 STARLINK-3554,1 51872U 22022W   23244.08349647  .00001027  00000-0  82604-4 0  9991,2 51872  53.2171 181.8867 0001236  91.7908 268.3225 15.08833353 84132,6917.901,95.438,540.621,538.911,0.0
51872.0,STARLINK-3554,PAYLOAD,2023-09-01 06:46:21,15.08856425,8.94e-05,53.2166,180.9936,109.7139,250.395,0.0002606,3.864e-05,0.0,0 STARLINK-3554,1 51872U 22022W   23244.28219546  .00003864  00000-0  26060-3 0  9991,2 51872  53.2166 180.9936 0000894 109.7139 250.3950 15.08856425 84162,6917.83,95.437,540.314,539.077,0.0
51872.0,STARLINK-3554,PAYLOAD,2023-09-01 13:07:56,15.08816504,8.57e-05,53.2165,179.8045,110.3697,249.7388,0.00034804,5.252e-05,0.0,0 STARLINK-3554,1 51872U 22022W   23244.54717841  .00005252  00000-0  34804-3 0  9999,2 51872  53.2165 179.8045 0000857 110.3697 249.7388 15.08816504 84201,6917.952,95.439,540.41,539.224,0.0
51872.0,STARLINK-3554,PAYLOAD,2023-09-01 19:29:27,15.08857447,5.31e-05,53.2148,178.6136,260.0065,100.0867,-8.001e-05,-1.561e-05,0.0,0 STARLINK-3554,1 51872U 22022W   23244.81211887 -.00001561  00000-0 -80010-4 0  9990,2 51872  53.2148 178.6136 0000531 260.0065 100.0867 15.08857447 84247,6917.827,95.436,540.059,539.325,0.0
51872.0,STARLINK-3554,PAYLOAD,2023-09-02 05:01:46,15.08850336,0.0001422,53.2143,176.8293,88.8783,271.2372,0.00014168,1.968e-05,0.0,0 STARLINK-3554,1 51872U 22022W   23245.20956209  .00001968  00000-0  14168-3 0  9997,2 51872  53.2143 176.8293 0001422  88.8783 271.2372 15.08850336 84308,6917.849,95.437,540.698,538.73,0.0
51872.0,STARLINK-3554,PAYLOAD,2023-09-03 01:41:47,15.08843181,0.0001472,53.2153,172.9623,91.0813,269.0347,5.4095e-06,-2.02e-06,0.0,0 STARLINK-3554,1 51872U 22022W   23246.07068999 -.00000202  00000-0  54095-5 0  9999,2 51872  53.2153 172.9623 0001472  91.0813 269.0347 15.08843181 84439,6917.871,95.437,540.754,538.717,0.0
51872.0,STARLINK-3554,PAYLOAD,2023-09-03 12:49:29,15.08840059,0.0001499,53.2143,170.8813,88.4763,271.64,-7.5368e-06,-4.08e-06,0.0,0 STARLINK-3554,1 51872U 22022W   23246.53437208 -.00000408  00000-0 -75368-5 0  9998,2 51872  53.2143 170.8813 0001499  88.4763 271.6400 15.08840059 84507,6917.88,95.438,540.782,538.708,0.0
51872.0,STARLINK-3554,PAYLOAD,2023-09-04 01:32:35,15.08837714,0.0001493,53.2145,168.5029,92.7983,267.318,-7.8643e-05,-1.539e-05,0.0,0 STARLINK-3554,1 51872U 22022W   23247.06429582 -.00001539  00000-0 -78643-4 0  9997,2 51872  53.2145 168.5029 0001493  92.7983 267.3180 15.08837714 84587,6917.887,95.438,540.785,538.72,0.0
51872.0,STARLINK-3554,PAYLOAD,2023-09-04 04:43:21,15.08841063,0.0001374,53.2176,167.9076,94.9451,265.1698,-0.00010467,-1.953e-05,0.0,0 STARLINK-3554,1 51872U 22022W   23247.19677417 -.00001953  00000-0 -10467-3 0  9992,2 51872  53.2176 167.9076 0001374  94.9451 265.1698 15.08841063 84603,6917.877,95.437,540.693,538.792,0.0
51872.0,STARLINK-3554,PAYLOAD,2023-09-05 02:58:45,15.08839874,0.0001375,53.2178,163.7449,92.1637,267.9512,1.1403e-05,-1.06e-06,0.0,0 STARLINK-3554,1 51872U 22022W   23248.12413522 -.00000106  00000-0  11403-4 0  9991,2 51872  53.2178 163.7449 0001375  92.1637 267.9512 15.08839874 84747,6917.881,95.438,540.697,538.795,0.0
